CSS (TIANHE-1)
1 48274U 21035A 22119.83409272 .00027210 00000-0 32287-3 0 9993
2 48274 41.4697 152.9317 0012148 244.1754 286.7073 15.60491137 57214
